start=new Date('2022-11-10T00:00:00.000Z').valueOf();
sats=[{"MEAN_MOTION_DDOT":"0.0000000000000","ARG_OF_PERICENTER":"42.0519","APOAPSIS":"541.174","REV_AT_EPOCH":"2810","FILE":"3649971","PERIAPSIS":"538.428","OBJECT_NAME":"STARLINK-3956","CENTER_NAME":"EARTH","RA_OF_ASC_NODE":"177.1147","GP_ID":"217251300","CLASSIFICATION_TYPE":"U","ELEMENT_SET_NO":"999","MEAN_MOTION":"15.08821777","LAUNCH_DATE":"2022-05-13","BSTAR":"0.00019585000000","OBJECT_TYPE":"PAYLOAD","COUNTRY_CODE":"US","RCS_SIZE":"LARGE","SEMIMAJOR_AXIS":"6917.936","EPOCH":"2022-11-09T21:04:32.767392","MEAN_ELEMENT_THEORY":"SGP4","EPHEMERIS_TYPE":"0","NORAD_CAT_ID":"52560","MEAN_ANOMALY":"318.0625","TIME_SYSTEM":"UTC","ECCENTRICITY":"0.00019850","PERIOD":"95.439","SITE":"AFWTR","OBJECT_ID":"2022-051AD","MEAN_MOTION_DOT":"0.00002829","TLE_LINE1":"1 52560U 22051AD  22313.87815703  .00002829  00000-0  19585-3 0  9990","DECAY_DATE":null,"INCLINATION":"53.2150","REF_FRAME":"TEME","TLE_LINE2":"2 52560  53.2150 177.1147 0001985  42.0519 318.0625 15.08821777 28100"},{"LAUNCH_DATE":"2022-05-13","MEAN_MOTION":"15.08806431","BSTAR":"-0.00127680000000","COUNTRY_CODE":"US","OBJECT_TYPE":"PAYLOAD","EPOCH":"2022-11-09T20:38:41.778528","RCS_SIZE":"LARGE","SEMIMAJOR_AXIS":"6917.983","EPHEMERIS_TYPE":"0","NORAD_CAT_ID":"52561","MEAN_ANOMALY":"316.0922","MEAN_ELEMENT_THEORY":"SGP4","TIME_SYSTEM":"UTC","SITE":"AFWTR","PERIOD":"95.440","ECCENTRICITY":"0.00019050","DECAY_DATE":null,"TLE_LINE1":"1 52561U 22051AE  22313.86020577 -.00020533  00000-0 -12768-2 0  9996","MEAN_MOTION_DOT":"-0.00020533","REF_FRAME":"TEME","INCLINATION":"53.2132","TLE_LINE2":"2 52561  53.2132 192.2030 0001905  44.0222 316.0922 15.08806431 27821","OBJECT_ID":"2022-051AE","ARG_OF_PERICENTER":"44.0222","MEAN_MOTION_DDOT":"0.0000000000000","REV_AT_EPOCH":"2782","APOAPSIS":"541.166","FILE":"3650001","OBJECT_NAME":"STARLINK-3955","PERIAPSIS":"538.530","CENTER_NAME":"EARTH","RA_OF_ASC_NODE":"192.2030","GP_ID":"217275703","CLASSIFICATION_TYPE":"U","ELEMENT_SET_NO":"999"},{"APOAPSIS":"541.185","REV_AT_EPOCH":"2803","OBJECT_NAME":"STARLINK-3957","FILE":"3650001","PERIAPSIS":"538.296","MEAN_MOTION_DDOT":"0.0000000000000","ARG_OF_PERICENTER":"47.2515","CLASSIFICATION_TYPE":"U","ELEMENT_SET_NO":"999","CENTER_NAME":"EARTH","RA_OF_ASC_NODE":"177.1351","GP_ID":"217275955","OBJECT_TYPE":"PAYLOAD","COUNTRY_CODE":"US","RCS_SIZE":"LARGE","SEMIMAJOR_AXIS":"6917.875","EPOCH":"2022-11-09T20:53:56.980896","LAUNCH_DATE":"2022-05-13","BSTAR":"0.00071801000000","MEAN_MOTION":"15.08841738","ECCENTRICITY":"0.00020880","PERIOD":"95.437","SITE":"AFWTR","OBJECT_ID":"2022-051AF","TLE_LINE1":"1 52562U 22051AF  22313.87079839  .00011158  00000-0  71801-3 0  9998","REF_FRAME":"TEME","DECAY_DATE":null,"MEAN_MOTION_DOT":"0.00011158","INCLINATION":"53.2138","TLE_LINE2":"2 52562  53.2138 177.1351 0002088  47.2515 312.8653 15.08841738 28037","MEAN_ELEMENT_THEORY":"SGP4","EPHEMERIS_TYPE":"0","MEAN_ANOMALY":"312.8653","NORAD_CAT_ID":"52562","TIME_SYSTEM":"UTC"},{"RCS_SIZE":"LARGE","SEMIMAJOR_AXIS":"6917.920","EPOCH":"2022-11-09T22:19:23.237184","OBJECT_TYPE":"PAYLOAD","COUNTRY_CODE":"US","MEAN_MOTION":"15.08827036","LAUNCH_DATE":"2022-05-13","BSTAR":"-0.00070524000000","OBJECT_ID":"2022-051AG","DECAY_DATE":null,"TLE_LINE1":"1 52563U 22051AG  22313.93013006 -.00011491  00000-0 -70524-3 0  9993","MEAN_MOTION_DOT":"-0.00011491","INCLINATION":"53.2135","REF_FRAME":"TEME","TLE_LINE2":"2 52563  53.2135 191.8846 0001825  52.8513 307.2646 15.08827036 27905","ECCENTRICITY":"0.00018250","SITE":"AFWTR","PERIOD":"95.438","TIME_SYSTEM":"UTC","MEAN_ELEMENT_THEORY":"SGP4","EPHEMERIS_TYPE":"0","NORAD_CAT_ID":"52563","MEAN_ANOMALY":"307.2646","FILE":"3649972","OBJECT_NAME":"STARLINK-3942","PERIAPSIS":"538.522","APOAPSIS":"541.048","REV_AT_EPOCH":"2790","MEAN_MOTION_DDOT":"0.0000000000000","ARG_OF_PERICENTER":"52.8513","ELEMENT_SET_NO":"999","CLASSIFICATION_TYPE":"U","GP_ID":"217251803","RA_OF_ASC_NODE":"191.8846","CENTER_NAME":"EARTH"},{"REV_AT_EPOCH":"2790","APOAPSIS":"541.250","FILE":"3649972","PERIAPSIS":"538.394","OBJECT_NAME":"STARLINK-3959","ARG_OF_PERICENTER":"54.9920","MEAN_MOTION_DDOT":"0.0000000000000","CLASSIFICATION_TYPE":"U","ELEMENT_SET_NO":"999","RA_OF_ASC_NODE":"191.9179","CENTER_NAME":"EARTH","GP_ID":"217251315","COUNTRY_CODE":"US","OBJECT_TYPE":"PAYLOAD","EPOCH":"2022-11-09T22:08:47.910336","RCS_SIZE":"LARGE","SEMIMAJOR_AXIS":"6917.957","MEAN_MOTION":"15.08815053","LAUNCH_DATE":"2022-05-13","BSTAR":"-0.00070505000000","PERIOD":"95.439","SITE":"AFWTR","ECCENTRICITY":"0.00020640","TLE_LINE1":"1 52564U 22051AH  22313.92277674 -.00011484  00000-0 -70505-3 0  9997","DECAY_DATE":null,"MEAN_MOTION_DOT":"-0.00011484","INCLINATION":"53.2143","REF_FRAME":"TEME","TLE_LINE2":"2 52564  53.2143 191.9179 0002064  54.9920 305.1265 15.08815053 27906","OBJECT_ID":"2022-051AH","EPHEMERIS_TYPE":"0","NORAD_CAT_ID":"52564","MEAN_ANOMALY":"305.1265","MEAN_ELEMENT_THEORY":"SGP4","TIME_SYSTEM":"UTC"},{"EPOCH":"2022-11-09T20:59:14.619264","RCS_SIZE":"LARGE","SEMIMAJOR_AXIS":"6917.940","COUNTRY_CODE":"US","OBJECT_TYPE":"PAYLOAD","LAUNCH_DATE":"2022-05-13","BSTAR":"-0.00100740000000","MEAN_MOTION":"15.08820431","TLE_LINE1":"1 52565U 22051AJ  22313.87447476 -.00016276  00000-0 -10074-2 0  9999","REF_FRAME":"TEME","DECAY_DATE":null,"MEAN_MOTION_DOT":"-0.00016276","INCLINATION":"53.2145","TLE_LINE2":"2 52565  53.2145 177.1246 0001114  33.6269 326.4794 15.08820431 28039","OBJECT_ID":"2022-051AJ","PERIOD":"95.439","SITE":"AFWTR","ECCENTRICITY":"0.00011140","TIME_SYSTEM":"UTC","EPHEMERIS_TYPE":"0","NORAD_CAT_ID":"52565","MEAN_ANOMALY":"326.4794","MEAN_ELEMENT_THEORY":"SGP4","OBJECT_NAME":"STARLINK-3911","FILE":"3650001","PERIAPSIS":"539.035","REV_AT_EPOCH":"2803","APOAPSIS":"540.576","ARG_OF_PERICENTER":"33.6269","MEAN_MOTION_DDOT":"0.0000000000000","ELEMENT_SET_NO":"999","CLASSIFICATION_TYPE":"U","GP_ID":"217276204","RA_OF_ASC_NODE":"177.1246","CENTER_NAME":"EARTH"},{"TLE_LINE2":"2 52566  53.2192 192.0153 0001725  43.0294 317.0833 15.08837950 27837","REF_FRAME":"TEME","TLE_LINE1":"1 52566U 22051AK  22313.90069911 -.00001169  00000-0 -55346-4 0  9996","DECAY_DATE":null,"MEAN_MOTION_DOT":"-0.00001169","INCLINATION":"53.2192","OBJECT_ID":"2022-051AK","SITE":"AFWTR","PERIOD":"95.438","ECCENTRICITY":"0.00017250","TIME_SYSTEM":"UTC","NORAD_CAT_ID":"52566","MEAN_ANOMALY":"317.0833","EPHEMERIS_TYPE":"0","MEAN_ELEMENT_THEORY":"SGP4","EPOCH":"2022-11-09T21:37:00.403104","SEMIMAJOR_AXIS":"6917.887","RCS_SIZE":"MEDIUM","COUNTRY_CODE":"US","OBJECT_TYPE":"PAYLOAD","MEAN_MOTION":"15.08837950","LAUNCH_DATE":"2022-05-13","BSTAR":"-0.00005534600000","ELEMENT_SET_NO":"999","CLASSIFICATION_TYPE":"U","GP_ID":"217276456","RA_OF_ASC_NODE":"192.0153","CENTER_NAME":"EARTH","FILE":"3650001","PERIAPSIS":"538.558","OBJECT_NAME":"STARLINK-3938","REV_AT_EPOCH":"2783","APOAPSIS":"540.945","ARG_OF_PERICENTER":"43.0294","MEAN_MOTION_DDOT":"0.0000000000000"},{"ELEMENT_SET_NO":"999","CLASSIFICATION_TYPE":"U","GP_ID":"217275204","RA_OF_ASC_NODE":"177.1543","CENTER_NAME":"EARTH","FILE":"3650001","OBJECT_NAME":"STARLINK-3929","PERIAPSIS":"538.337","REV_AT_EPOCH":"2803","APOAPSIS":"541.205","ARG_OF_PERICENTER":"41.7636","MEAN_MOTION_DDOT":"0.0000000000000","TLE_LINE2":"2 52567  53.2160 177.1543 0002073  41.7636 318.3514 15.08831716 28039","TLE_LINE1":"1 52567U 22051AL  22313.86713732 -.00004623  00000-0 -27262-3 0  9992","REF_FRAME":"TEME","DECAY_DATE":null,"MEAN_MOTION_DOT":"-0.00004623","INCLINATION":"53.2160","OBJECT_ID":"2022-051AL","PERIOD":"95.438","SITE":"AFWTR","ECCENTRICITY":"0.00020730","TIME_SYSTEM":"UTC","MEAN_ANOMALY":"318.3514","NORAD_CAT_ID":"52567","EPHEMERIS_TYPE":"0","MEAN_ELEMENT_THEORY":"SGP4","EPOCH":"2022-11-09T20:48:40.664448","SEMIMAJOR_AXIS":"6917.906","RCS_SIZE":"LARGE","COUNTRY_CODE":"US","OBJECT_TYPE":"PAYLOAD","MEAN_MOTION":"15.08831716","LAUNCH_DATE":"2022-05-13","BSTAR":"-0.00027262000000"},{"LAUNCH_DATE":"2022-05-13","MEAN_MOTION":"15.08817094","BSTAR":"-0.00102060000000","OBJECT_TYPE":"PAYLOAD","COUNTRY_CODE":"US","SEMIMAJOR_AXIS":"6917.950","RCS_SIZE":"LARGE","EPOCH":"2022-11-09T20:32:45.184992","MEAN_ELEMENT_THEORY":"SGP4","MEAN_ANOMALY":"326.3183","NORAD_CAT_ID":"52568","EPHEMERIS_TYPE":"0","TIME_SYSTEM":"UTC","ECCENTRICITY":"0.00022630","SITE":"AFWTR","PERIOD":"95.439","OBJECT_ID":"2022-051AM","TLE_LINE2":"2 52568  53.2154 177.2095 0002263  33.7953 326.3183 15.08817094 28034","DECAY_DATE":null,"TLE_LINE1":"1 52568U 22051AM  22313.85607853 -.00016485  00000-0 -10206-2 0  9996","INCLINATION":"53.2154","MEAN_MOTION_DOT":"-0.00016485","REF_FRAME":"TEME","MEAN_MOTION_DDOT":"0.0000000000000","ARG_OF_PERICENTER":"33.7953","APOAPSIS":"541.381","REV_AT_EPOCH":"2803","PERIAPSIS":"538.250","FILE":"3650001","OBJECT_NAME":"STARLINK-3930","RA_OF_ASC_NODE":"177.2095","CENTER_NAME":"EARTH","GP_ID":"217275454","CLASSIFICATION_TYPE":"U","ELEMENT_SET_NO":"999"},{"LAUNCH_DATE":"2022-05-13","BSTAR":"-0.00022015000000","MEAN_MOTION":"15.08828738","COUNTRY_CODE":"US","OBJECT_TYPE":"PAYLOAD","EPOCH":"2022-11-09T22:18:45.511488","RCS_SIZE":"LARGE","SEMIMAJOR_AXIS":"6917.915","EPHEMERIS_TYPE":"0","NORAD_CAT_ID":"52569","MEAN_ANOMALY":"313.4214","MEAN_ELEMENT_THEORY":"SGP4","TIME_SYSTEM":"UTC","SITE":"AFWTR","PERIOD":"95.438","ECCENTRICITY":"0.00019380","TLE_LINE1":"1 52569U 22051AN  22313.92969342 -.00003789  00000-0 -22015-3 0  9994","MEAN_MOTION_DOT":"-0.00003789","DECAY_DATE":null,"REF_FRAME":"TEME","INCLINATION":"53.2179","TLE_LINE2":"2 52569  53.2179 176.8809 0001938  46.6939 313.4214 15.08828738 28113","OBJECT_ID":"2022-051AN","ARG_OF_PERICENTER":"46.6939","MEAN_MOTION_DDOT":"0.0000000000000","REV_AT_EPOCH":"2811","APOAPSIS":"541.121","FILE":"3649988","OBJECT_NAME":"STARLINK-3927","PERIAPSIS":"538.439","CENTER_NAME":"EARTH","RA_OF_ASC_NODE":"176.8809","GP_ID":"217251849","CLASSIFICATION_TYPE":"U","ELEMENT_SET_NO":"999"}];
